start=new Date('2023-03-09T00:00:00.000Z').valueOf();
sats=[{"SITE":"AFWTR","MEAN_MOTION_DDOT":"0.0000000000000","PERIOD":"91.728","FILE":"3855077","LAUNCH_DATE":"2023-02-17","DECAY_DATE":null,"BSTAR":"0.00087752000000","PERIAPSIS":"357.038","SEMIMAJOR_AXIS":"6737.444","APOAPSIS":"361.581","GP_ID":"227725918","RA_OF_ASC_NODE":"96.0953","TLE_LINE2":"2 55657  70.0006  96.0953 0003372 270.8375 166.7420 15.69856566  1309","CENTER_NAME":"EARTH","OBJECT_ID":"2023-021AF","COUNTRY_CODE":"US","REF_FRAME":"TEME","EPHEMERIS_TYPE":"0","MEAN_MOTION":"15.69856566","MEAN_ANOMALY":"166.7420","MEAN_MOTION_DOT":"0.00106351","OBJECT_NAME":"STARLINK-5328","RCS_SIZE":"LARGE","TIME_SYSTEM":"UTC","ELEMENT_SET_NO":"999","ECCENTRICITY":"0.00033720","ARG_OF_PERICENTER":"270.8375","REV_AT_EPOCH":"130","CLASSIFICATION_TYPE":"U","TLE_LINE1":"1 55657U 23021AF  23067.91667824  .00106351  00000-0  87752-3 0  9995","INCLINATION":"70.0006","EPOCH":"2023-03-08T22:00:00.999936","MEAN_ELEMENT_THEORY":"SGP4","NORAD_CAT_ID":"55657","OBJECT_TYPE":"PAYLOAD"},{"INCLINATION":"70.0007","TLE_LINE1":"1 55658U 23021AG  23067.91667824  .00142371  00000-0  11696-2 0  9991","REV_AT_EPOCH":"130","CLASSIFICATION_TYPE":"U","ARG_OF_PERICENTER":"260.3348","ECCENTRICITY":"0.00034090","OBJECT_TYPE":"PAYLOAD","NORAD_CAT_ID":"55658","MEAN_ELEMENT_THEORY":"SGP4","EPOCH":"2023-03-08T22:00:00.999936","MEAN_MOTION":"15.69845816","EPHEMERIS_TYPE":"0","REF_FRAME":"TEME","COUNTRY_CODE":"US","OBJECT_ID":"2023-021AG","ELEMENT_SET_NO":"999","TIME_SYSTEM":"UTC","RCS_SIZE":"LARGE","MEAN_MOTION_DOT":"0.00142371","OBJECT_NAME":"STARLINK-5307","MEAN_ANOMALY":"173.0650","GP_ID":"227725939","RA_OF_ASC_NODE":"96.1007","APOAPSIS":"361.637","SEMIMAJOR_AXIS":"6737.475","BSTAR":"0.00116960000000","PERIAPSIS":"357.043","CENTER_NAME":"EARTH","TLE_LINE2":"2 55658  70.0007  96.1007 0003409 260.3348 173.0650 15.69845816  1309","SITE":"AFWTR","DECAY_DATE":null,"LAUNCH_DATE":"2023-02-17","FILE":"3855077","PERIOD":"91.729","MEAN_MOTION_DDOT":"0.0000000000000"},{"CLASSIFICATION_TYPE":"U","REV_AT_EPOCH":"357","INCLINATION":"70.0010","TLE_LINE1":"1 55659U 23021AH  23068.08334491 -.00004932  00000-0 -39265-4 0  9998","ARG_OF_PERICENTER":"259.9116","ECCENTRICITY":"0.00034420","NORAD_CAT_ID":"55659","MEAN_ELEMENT_THEORY":"SGP4","OBJECT_TYPE":"PAYLOAD","EPOCH":"2023-03-09T02:00:01.000224","EPHEMERIS_TYPE":"0","REF_FRAME":"TEME","MEAN_MOTION":"15.69929358","OBJECT_ID":"2023-021AH","COUNTRY_CODE":"US","TIME_SYSTEM":"UTC","RCS_SIZE":"LARGE","ELEMENT_SET_NO":"999","MEAN_ANOMALY":"39.8922","MEAN_MOTION_DOT":"-0.00004932","OBJECT_NAME":"STARLINK-5477","SEMIMAJOR_AXIS":"6737.236","PERIAPSIS":"356.782","BSTAR":"-0.00003926500000","RA_OF_ASC_NODE":"95.6262","GP_ID":"227698583","APOAPSIS":"361.420","CENTER_NAME":"EARTH","TLE_LINE2":"2 55659  70.0010  95.6262 0003442 259.9116  39.8922 15.69929358  3571","SITE":"AFWTR","LAUNCH_DATE":"2023-02-17","FILE":"3855047","DECAY_DATE":null,"PERIOD":"91.724","MEAN_MOTION_DDOT":"0.0000000000000"},{"TIME_SYSTEM":"UTC","RCS_SIZE":"LARGE","ELEMENT_SET_NO":"999","MEAN_ANOMALY":"178.1901","OBJECT_NAME":"STARLINK-5467","MEAN_MOTION_DOT":"0.00109006","EPHEMERIS_TYPE":"0","REF_FRAME":"TEME","MEAN_MOTION":"15.69854697","OBJECT_ID":"2023-021AJ","COUNTRY_CODE":"US","NORAD_CAT_ID":"55660","MEAN_ELEMENT_THEORY":"SGP4","OBJECT_TYPE":"PAYLOAD","EPOCH":"2023-03-08T22:00:00.999936","CLASSIFICATION_TYPE":"U","REV_AT_EPOCH":"130","INCLINATION":"70.0006","TLE_LINE1":"1 55660U 23021AJ  23067.91667824  .00109006  00000-0  89915-3 0  9992","ARG_OF_PERICENTER":"258.1965","ECCENTRICITY":"0.00035030","LAUNCH_DATE":"2023-02-17","FILE":"3855077","DECAY_DATE":null,"PERIOD":"91.728","MEAN_MOTION_DDOT":"0.0000000000000","SITE":"AFWTR","CENTER_NAME":"EARTH","TLE_LINE2":"2 55660  70.0006  96.0969 0003503 258.1965 178.1901 15.69854697  1304","SEMIMAJOR_AXIS":"6737.450","BSTAR":"0.00089915000000","PERIAPSIS":"356.955","GP_ID":"227725886","RA_OF_ASC_NODE":"96.0969","APOAPSIS":"361.675"},{"CENTER_NAME":"EARTH","TLE_LINE2":"2 55661  70.0007  96.0930 0003409 258.4123 181.5403 15.69842072  1307","APOAPSIS":"361.648","RA_OF_ASC_NODE":"96.0930","GP_ID":"227725998","BSTAR":"0.00122660000000","PERIAPSIS":"357.054","SEMIMAJOR_AXIS":"6737.486","DECAY_DATE":null,"FILE":"3855077","LAUNCH_DATE":"2023-02-17","MEAN_MOTION_DDOT":"0.0000000000000","PERIOD":"91.729","SITE":"AFWTR","OBJECT_TYPE":"PAYLOAD","MEAN_ELEMENT_THEORY":"SGP4","NORAD_CAT_ID":"55661","EPOCH":"2023-03-08T22:00:00.999936","TLE_LINE1":"1 55661U 23021AK  23067.91667824  .00149423  00000-0  12266-2 0  9994","INCLINATION":"70.0007","CLASSIFICATION_TYPE":"U","REV_AT_EPOCH":"130","ECCENTRICITY":"0.00034090","ARG_OF_PERICENTER":"258.4123","ELEMENT_SET_NO":"999","RCS_SIZE":"LARGE","TIME_SYSTEM":"UTC","OBJECT_NAME":"STARLINK-5475","MEAN_MOTION_DOT":"0.00149423","MEAN_ANOMALY":"181.5403","MEAN_MOTION":"15.69842072","REF_FRAME":"TEME","EPHEMERIS_TYPE":"0","COUNTRY_CODE":"US","OBJECT_ID":"2023-021AK"},{"MEAN_MOTION":"15.69933685","EPHEMERIS_TYPE":"0","REF_FRAME":"TEME","COUNTRY_CODE":"US","OBJECT_ID":"2023-021AL","ELEMENT_SET_NO":"999","TIME_SYSTEM":"UTC","RCS_SIZE":"LARGE","MEAN_MOTION_DOT":"-0.00003234","OBJECT_NAME":"STARLINK-5479","MEAN_ANOMALY":"39.8362","INCLINATION":"70.0008","TLE_LINE1":"1 55662U 23021AL  23068.08334491 -.00003234  00000-0 -25125-4 0  9996","REV_AT_EPOCH":"357","CLASSIFICATION_TYPE":"U","ARG_OF_PERICENTER":"258.7724","ECCENTRICITY":"0.00033800","OBJECT_TYPE":"PAYLOAD","NORAD_CAT_ID":"55662","MEAN_ELEMENT_THEORY":"SGP4","EPOCH":"2023-03-09T02:00:01.000224","SITE":"AFWTR","DECAY_DATE":null,"LAUNCH_DATE":"2023-02-17","FILE":"3855047","PERIOD":"91.724","MEAN_MOTION_DDOT":"0.0000000000000","RA_OF_ASC_NODE":"95.6275","GP_ID":"227698582","APOAPSIS":"361.366","SEMIMAJOR_AXIS":"6737.224","BSTAR":"-0.00002512500000","PERIAPSIS":"356.812","CENTER_NAME":"EARTH","TLE_LINE2":"2 55662  70.0008  95.6275 0003380 258.7724  39.8362 15.69933685  3575"},{"MEAN_MOTION_DDOT":"0.0000000000000","PERIOD":"91.724","DECAY_DATE":null,"FILE":"3855047","LAUNCH_DATE":"2023-02-17","SITE":"AFWTR","TLE_LINE2":"2 55663  70.0011  95.6207 0003439 259.9048  44.6563 15.69930091  3577","CENTER_NAME":"EARTH","APOAPSIS":"361.416","RA_OF_ASC_NODE":"95.6207","GP_ID":"227698581","PERIAPSIS":"356.782","BSTAR":"0.00003451400000","SEMIMAJOR_AXIS":"6737.234","OBJECT_NAME":"STARLINK-5473","MEAN_MOTION_DOT":"0.00003940","MEAN_ANOMALY":"44.6563","ELEMENT_SET_NO":"999","RCS_SIZE":"LARGE","TIME_SYSTEM":"UTC","COUNTRY_CODE":"US","OBJECT_ID":"2023-021AM","MEAN_MOTION":"15.69930091","REF_FRAME":"TEME","EPHEMERIS_TYPE":"0","EPOCH":"2023-03-09T02:00:01.000224","OBJECT_TYPE":"PAYLOAD","MEAN_ELEMENT_THEORY":"SGP4","NORAD_CAT_ID":"55663","ECCENTRICITY":"0.00034390","ARG_OF_PERICENTER":"259.9048","TLE_LINE1":"1 55663U 23021AM  23068.08334491  .00003940  00000-0  34514-4 0  9991","INCLINATION":"70.0011","REV_AT_EPOCH":"357","CLASSIFICATION_TYPE":"U"},{"SITE":"AFWTR","DECAY_DATE":null,"LAUNCH_DATE":"2023-02-17","FILE":"3855077","PERIOD":"91.729","MEAN_MOTION_DDOT":"0.0000000000000","RA_OF_ASC_NODE":"96.0932","GP_ID":"227725965","APOAPSIS":"361.649","SEMIMAJOR_AXIS":"6737.491","BSTAR":"0.00111970000000","PERIAPSIS":"357.062","CENTER_NAME":"EARTH","TLE_LINE2":"2 55664  70.0005  96.0932 0003404 262.1717 177.1990 15.69840331  1304","MEAN_MOTION":"15.69840331","EPHEMERIS_TYPE":"0","REF_FRAME":"TEME","COUNTRY_CODE":"US","OBJECT_ID":"2023-021AN","ELEMENT_SET_NO":"999","TIME_SYSTEM":"UTC","RCS_SIZE":"LARGE","MEAN_MOTION_DOT":"0.00136156","OBJECT_NAME":"STARLINK-5480","MEAN_ANOMALY":"177.1990","INCLINATION":"70.0005","TLE_LINE1":"1 55664U 23021AN  23067.91667824  .00136156  00000-0  11197-2 0  9998","REV_AT_EPOCH":"130","CLASSIFICATION_TYPE":"U","ARG_OF_PERICENTER":"262.1717","ECCENTRICITY":"0.00034040","OBJECT_TYPE":"PAYLOAD","NORAD_CAT_ID":"55664","MEAN_ELEMENT_THEORY":"SGP4","EPOCH":"2023-03-08T22:00:00.999936"},{"APOAPSIS":"361.697","RA_OF_ASC_NODE":"96.0914","GP_ID":"227725919","PERIAPSIS":"356.956","BSTAR":"0.00104830000000","SEMIMAJOR_AXIS":"6737.462","CENTER_NAME":"EARTH","TLE_LINE2":"2 55665  70.0007  96.0914 0003519 266.3379 174.8065 15.69850560  1306","SITE":"AFWTR","DECAY_DATE":null,"FILE":"3855077","LAUNCH_DATE":"2023-02-17","PERIOD":"91.728","MEAN_MOTION_DDOT":"0.0000000000000","TLE_LINE1":"1 55665U 23021AP  23067.91667824  .00127382  00000-0  10483-2 0  9997","INCLINATION":"70.0007","REV_AT_EPOCH":"130","CLASSIFICATION_TYPE":"U","ARG_OF_PERICENTER":"266.3379","ECCENTRICITY":"0.00035190","OBJECT_TYPE":"PAYLOAD","MEAN_ELEMENT_THEORY":"SGP4","NORAD_CAT_ID":"55665","EPOCH":"2023-03-08T22:00:00.999936","MEAN_MOTION":"15.69850560","REF_FRAME":"TEME","EPHEMERIS_TYPE":"0","COUNTRY_CODE":"US","OBJECT_ID":"2023-021AP","ELEMENT_SET_NO":"999","RCS_SIZE":"LARGE","TIME_SYSTEM":"UTC","MEAN_MOTION_DOT":"0.00127382","OBJECT_NAME":"STARLINK-5474","MEAN_ANOMALY":"174.8065"},{"COUNTRY_CODE":"US","OBJECT_ID":"2023-021AQ","MEAN_MOTION":"15.83933918","REF_FRAME":"TEME","EPHEMERIS_TYPE":"0","MEAN_MOTION_DOT":"0.00278641","OBJECT_NAME":"STARLINK-5457","MEAN_ANOMALY":"57.0341","ELEMENT_SET_NO":"999","RCS_SIZE":"LARGE","TIME_SYSTEM":"UTC","ECCENTRICITY":"0.00030960","ARG_OF_PERICENTER":"271.5207","TLE_LINE1":"1 55666U 23021AQ  23067.91667824  .00278641  00000-0  12099-2 0  9998","INCLINATION":"69.9927","CLASSIFICATION_TYPE":"U","REV_AT_EPOCH":"130","EPOCH":"2023-03-08T22:00:00.999936","OBJECT_TYPE":"PAYLOAD","MEAN_ELEMENT_THEORY":"SGP4","NORAD_CAT_ID":"55666","SITE":"AFWTR","PERIOD":"90.913","MEAN_MOTION_DDOT":"0.0000000000000","DECAY_DATE":null,"FILE":"3855077","LAUNCH_DATE":"2023-02-17","APOAPSIS":"321.404","GP_ID":"227725940","RA_OF_ASC_NODE":"95.7985","BSTAR":"0.00120990000000","PERIAPSIS":"317.257","SEMIMAJOR_AXIS":"6697.465","TLE_LINE2":"2 55666  69.9927  95.7985 0003096 271.5207  57.0341 15.83933918  1301","CENTER_NAME":"EARTH"}];
